[{"OBJECT_NAME":"STARLINK-1231","OBJECT_ID":"2020-012AL","EPOCH":"2026-03-09T22:37:47.053344","MEAN_MOTION":15.21109103,"ECCENTRICITY":0.00044424,"INCLINATION":53.0512,"RA_OF_ASC_NODE":14.6305,"ARG_OF_PERICENTER":85.7688,"MEAN_ANOMALY":274.3815,"EPHEMERIS_TYPE":0,"CLASSIFICATION_TYPE":"U","NORAD_CAT_ID":45212,"ELEMENT_SET_NO":999,"REV_AT_EPOCH":33526,"BSTAR":0.0021253625,"MEAN_MOTION_DOT":0.00047876,"MEAN_MOTION_DDOT":0},{"OBJECT_NAME":"CONNECTA IOT-1","OBJECT_ID":"2024-149E","EPOCH":"2026-03-09T18:22:27.950592","MEAN_MOTION":15.22912788,"ECCENTRICITY":4.716e-5,"INCLINATION":97.3815,"RA_OF_ASC_NODE":146.767,"ARG_OF_PERICENTER":228.7595,"MEAN_ANOMALY":131.3601,"EPHEMERIS_TYPE":0,"CLASSIFICATION_TYPE":"U","NORAD_CAT_ID":60472,"ELEMENT_SET_NO":999,"REV_AT_EPOCH":8666,"BSTAR":0.00025344634,"MEAN_MOTION_DOT":5.875e-5,"MEAN_MOTION_DDOT":0}]
